[{"OBJECT_NAME":"ORBCOMM FM35","OBJECT_ID":"1999-065F","EPOCH":"2026-03-05T08:37:40.755072","MEAN_MOTION":14.37862988,"ECCENTRICITY":0.0003405,"INCLINATION":45.0398,"RA_OF_ASC_NODE":299.5944,"ARG_OF_PERICENTER":275.6516,"MEAN_ANOMALY":84.3944,"EPHEMERIS_TYPE":0,"CLASSIFICATION_TYPE":"U","NORAD_CAT_ID":25985,"ELEMENT_SET_NO":999,"REV_AT_EPOCH":37236,"BSTAR":0.00051214,"MEAN_MOTION_DOT":1.417e-5,"MEAN_MOTION_DDOT":0},{"OBJECT_NAME":"ORBCOMM FM34","OBJECT_ID":"1999-065G","EPOCH":"2026-03-05T16:15:34.094880","MEAN_MOTION":14.37776198,"ECCENTRICITY":0.0003105,"INCLINATION":45.0393,"RA_OF_ASC_NODE":298.5965,"ARG_OF_PERICENTER":219.8981,"MEAN_ANOMALY":140.1639,"EPHEMERIS_TYPE":0,"CLASSIFICATION_TYPE":"U","NORAD_CAT_ID":25986,"ELEMENT_SET_NO":999,"REV_AT_EPOCH":37252,"BSTAR":0.00042946,"MEAN_MOTION_DOT":1.163e-5,"MEAN_MOTION_DDOT":0},{"OBJECT_NAME":"ORBCOMM FM38","OBJECT_ID":"2008-031A","EPOCH":"2026-03-05T14:44:36.065184","MEAN_MOTION":14.82712936,"ECCENTRICITY":0.0003799,"INCLINATION":48.4388,"RA_OF_ASC_NODE":148.1255,"ARG_OF_PERICENTER":89.9606,"MEAN_ANOMALY":270.1746,"EPHEMERIS_TYPE":0,"CLASSIFICATION_TYPE":"U","NORAD_CAT_ID":33060,"ELEMENT_SET_NO":999,"REV_AT_EPOCH":95352,"BSTAR":0.00038681,"MEAN_MOTION_DOT":2.94e-5,"MEAN_MOTION_DDOT":0},{"OBJECT_NAME":"ORBCOMM FM41","OBJECT_ID":"2008-031B","EPOCH":"2026-03-05T10:38:05.239680","MEAN_MOTION":14.82246459,"ECCENTRICITY":0.0003091,"INCLINATION":48.4424,"RA_OF_ASC_NODE":157.6654,"ARG_OF_PERICENTER":67.7475,"MEAN_ANOMALY":28.7544,"EPHEMERIS_TYPE":0,"CLASSIFICATION_TYPE":"U","NORAD_CAT_ID":33061,"ELEMENT_SET_NO":999,"REV_AT_EPOCH":95297,"BSTAR":0.00036525,"MEAN_MOTION_DOT":2.732e-5,"MEAN_MOTION_DDOT":0},{"OBJECT_NAME":"ORBCOMM FM29","OBJECT_ID":"2008-031C","EPOCH":"2026-03-05T11:19:29.350272","MEAN_MOTION":14.82420987,"ECCENTRICITY":0.0004721,"INCLINATION":48.4376,"RA_OF_ASC_NODE":164.9602,"ARG_OF_PERICENTER":69.3432,"MEAN_ANOMALY":29.4947,"EPHEMERIS_TYPE":0,"CLASSIFICATION_TYPE":"U","NORAD_CAT_ID":33062,"ELEMENT_SET_NO":999,"REV_AT_EPOCH":95289,"BSTAR":0.00040075,"MEAN_MOTION_DOT":3.031e-5,"MEAN_MOTION_DDOT":0},{"OBJECT_NAME":"ORBCOMM FM39","OBJECT_ID":"2008-031D","EPOCH":"2026-03-05T14:50:27.402144","MEAN_MOTION":14.80802837,"ECCENTRICITY":0.0005838,"INCLINATION":48.4387,"RA_OF_ASC_NODE":191.5526,"ARG_OF_PERICENTER":36.6952,"MEAN_ANOMALY":323.4362,"EPHEMERIS_TYPE":0,"CLASSIFICATION_TYPE":"U","NORAD_CAT_ID":33063,"ELEMENT_SET_NO":999,"REV_AT_EPOCH":95252,"BSTAR":0.00039041,"MEAN_MOTION_DOT":2.83e-5,"MEAN_MOTION_DDOT":0},{"OBJECT_NAME":"ORBCOMM FM37","OBJECT_ID":"2008-031E","EPOCH":"2026-03-05T17:08:51.163584","MEAN_MOTION":14.80997061,"ECCENTRICITY":0.0004355,"INCLINATION":48.438,"RA_OF_ASC_NODE":179.2121,"ARG_OF_PERICENTER":58.0996,"MEAN_ANOMALY":85.2333,"EPHEMERIS_TYPE":0,"CLASSIFICATION_TYPE":"U","NORAD_CAT_ID":33064,"ELEMENT_SET_NO":999,"REV_AT_EPOCH":95279,"BSTAR":0.0003743,"MEAN_MOTION_DOT":2.718e-5,"MEAN_MOTION_DDOT":0},{"OBJECT_NAME":"ORBCOMM FM40","OBJECT_ID":"2008-031F","EPOCH":"2026-03-05T11:02:33.533376","MEAN_MOTION":14.83632657,"ECCENTRICITY":0.0005155,"INCLINATION":48.44,"RA_OF_ASC_NODE":159.7553,"ARG_OF_PERICENTER":76.1773,"MEAN_ANOMALY":23.7971,"EPHEMERIS_TYPE":0,"CLASSIFICATION_TYPE":"U","NORAD_CAT_ID":33065,"ELEMENT_SET_NO":999,"REV_AT_EPOCH":95293,"BSTAR":0.00042706,"MEAN_MOTION_DOT":3.345e-5,"MEAN_MOTION_DDOT":0},{"OBJECT_NAME":"VESSELSAT 1","OBJECT_ID":"2011-058C","EPOCH":"2026-03-05T19:53:23.614656","MEAN_MOTION":14.11419569,"ECCENTRICITY":0.0013661,"INCLINATION":19.9627,"RA_OF_ASC_NODE":310.6152,"ARG_OF_PERICENTER":184.4653,"MEAN_ANOMALY":175.5631,"EPHEMERIS_TYPE":0,"CLASSIFICATION_TYPE":"U","NORAD_CAT_ID":37840,"ELEMENT_SET_NO":999,"REV_AT_EPOCH":74331,"BSTAR":8.0793e-5,"MEAN_MOTION_DOT":4.14e-6,"MEAN_MOTION_DDOT":0},{"OBJECT_NAME":"ORBCOMM FM109","OBJECT_ID":"2014-040A","EPOCH":"2026-03-05T17:54:50.478048","MEAN_MOTION":14.58716149,"ECCENTRICITY":0.0001209,"INCLINATION":47.0019,"RA_OF_ASC_NODE":220.5009,"ARG_OF_PERICENTER":126.5476,"MEAN_ANOMALY":233.5521,"EPHEMERIS_TYPE":0,"CLASSIFICATION_TYPE":"U","NORAD_CAT_ID":40086,"ELEMENT_SET_NO":999,"REV_AT_EPOCH":61924,"BSTAR":0.00023252,"MEAN_MOTION_DOT":9.25e-6,"MEAN_MOTION_DDOT":0},{"OBJECT_NAME":"ORBCOMM FM107","OBJECT_ID":"2014-040B","EPOCH":"2026-03-05T14:58:58.471104","MEAN_MOTION":14.58800025,"ECCENTRICITY":5.48e-5,"INCLINATION":47.0035,"RA_OF_ASC_NODE":221.9311,"ARG_OF_PERICENTER":2.6194,"MEAN_ANOMALY":357.4695,"EPHEMERIS_TYPE":0,"CLASSIFICATION_TYPE":"U","NORAD_CAT_ID":40087,"ELEMENT_SET_NO":999,"REV_AT_EPOCH":61930,"BSTAR":0.00026979,"MEAN_MOTION_DOT":1.103e-5,"MEAN_MOTION_DDOT":0},{"OBJECT_NAME":"ORBCOMM FM106","OBJECT_ID":"2014-040C","EPOCH":"2026-03-05T06:08:32.295840","MEAN_MOTION":14.70290502,"ECCENTRICITY":0.0016454,"INCLINATION":47.0613,"RA_OF_ASC_NODE":24.5925,"ARG_OF_PERICENTER":203.5867,"MEAN_ANOMALY":156.4271,"EPHEMERIS_TYPE":0,"CLASSIFICATION_TYPE":"U","NORAD_CAT_ID":40088,"ELEMENT_SET_NO":999,"REV_AT_EPOCH":62188,"BSTAR":0.00029989,"MEAN_MOTION_DOT":1.642e-5,"MEAN_MOTION_DDOT":0},{"OBJECT_NAME":"ORBCOMM FM111","OBJECT_ID":"2014-040D","EPOCH":"2026-03-05T16:13:54.175872","MEAN_MOTION":14.88318688,"ECCENTRICITY":0.0028184,"INCLINATION":46.9996,"RA_OF_ASC_NODE":196.3195,"ARG_OF_PERICENTER":4.3061,"MEAN_ANOMALY":355.8075,"EPHEMERIS_TYPE":0,"CLASSIFICATION_TYPE":"U","NORAD_CAT_ID":40089,"ELEMENT_SET_NO":999,"REV_AT_EPOCH":62915,"BSTAR":0.00052197,"MEAN_MOTION_DOT":4.7e-5,"MEAN_MOTION_DDOT":0},{"OBJECT_NAME":"ORBCOMM FM104","OBJECT_ID":"2014-040E","EPOCH":"2026-03-04T14:23:27.395232","MEAN_MOTION":14.57157822,"ECCENTRICITY":0.0016452,"INCLINATION":47.0042,"RA_OF_ASC_NODE":263.5495,"ARG_OF_PERICENTER":314.17,"MEAN_ANOMALY":45.7833,"EPHEMERIS_TYPE":0,"CLASSIFICATION_TYPE":"U","NORAD_CAT_ID":40090,"ELEMENT_SET_NO":999,"REV_AT_EPOCH":61859,"BSTAR":0.00020138,"MEAN_MOTION_DOT":7.47e-6,"MEAN_MOTION_DDOT":0},{"OBJECT_NAME":"ORBCOMM FM103","OBJECT_ID":"2014-040F","EPOCH":"2026-03-05T19:36:52.457184","MEAN_MOTION":14.58702734,"ECCENTRICITY":0.0001118,"INCLINATION":47.0038,"RA_OF_ASC_NODE":221.7373,"ARG_OF_PERICENTER":24.0757,"MEAN_ANOMALY":336.0181,"EPHEMERIS_TYPE":0,"CLASSIFICATION_TYPE":"U","NORAD_CAT_ID":40091,"ELEMENT_SET_NO":999,"REV_AT_EPOCH":60229,"BSTAR":0.00025098,"MEAN_MOTION_DOT":1.012e-5,"MEAN_MOTION_DDOT":0},{"OBJECT_NAME":"ORBCOMM FM114","OBJECT_ID":"2015-081A","EPOCH":"2026-03-05T05:11:37.047264","MEAN_MOTION":14.58721704,"ECCENTRICITY":0.0001234,"INCLINATION":47.0042,"RA_OF_ASC_NODE":133.5177,"ARG_OF_PERICENTER":85.6971,"MEAN_ANOMALY":274.4056,"EPHEMERIS_TYPE":0,"CLASSIFICATION_TYPE":"U","NORAD_CAT_ID":41179,"ELEMENT_SET_NO":999,"REV_AT_EPOCH":54257,"BSTAR":0.00021854,"MEAN_MOTION_DOT":8.59e-6,"MEAN_MOTION_DDOT":0},{"OBJECT_NAME":"ORBCOMM FM119","OBJECT_ID":"2015-081B","EPOCH":"2026-03-05T06:48:59.034240","MEAN_MOTION":14.58665127,"ECCENTRICITY":9.59e-5,"INCLINATION":47.0011,"RA_OF_ASC_NODE":42.5564,"ARG_OF_PERICENTER":221.4495,"MEAN_ANOMALY":138.6318,"EPHEMERIS_TYPE":0,"CLASSIFICATION_TYPE":"U","NORAD_CAT_ID":41180,"ELEMENT_SET_NO":999,"REV_AT_EPOCH":54383,"BSTAR":0.00025456,"MEAN_MOTION_DOT":1.028e-5,"MEAN_MOTION_DDOT":0}]
